ISS (ZARYA)
1 25544U 98067A   26244.49851261  .00003910  00000+0  79223-4 0  9993
2 25544  51.6312 282.3953 0005055  96.4740 263.6825 15.48958602583586
LCS 1
1 01361U 65034C   26243.70311190  .00000004  00000+0 -60455-3 0  9995
2 01361  32.1466 357.7243 0011520  29.1390 330.9749  9.89310587217363
LES-5
1 02866U 67066E   26243.81370234 -.00000052  00000+0  00000+0 0  9998
2 02866   2.7940  94.1569 0051581 214.6222 302.5289  1.09425249131863
STARLINK-5823
1 55786U 23028AX  26243.92982382 -.01969004  00000+0 -20781+0 0  9993
2 55786  69.9784 122.6977 0014872 295.9912  63.9712 14.92691354193240
